OBJECT_NAME,OBJECT_ID,EPOCH,MEAN_MOTION,ECCENTRICITY,INCLINATION,RA_OF_ASC_NODE,ARG_OF_PERICENTER,MEAN_ANOMALY,EPHEMERIS_TYPE,CLASSIFICATION_TYPE,NORAD_CAT_ID,ELEMENT_SET_NO,REV_AT_EPOCH,BSTAR,MEAN_MOTION_DOT,MEAN_MOTION_DDOT
CUTE-1 (CO-55),2003-031E,2026-07-04T05:56:57.059232,14.24346436,.00104958,98.6737,193.5921,131.0511,229.1577,0,U,27844,999,19410,.16569058E-3,.339E-5,0
CUBESAT XI-IV (CO-57),2003-031J,2026-07-03T23:07:50.367360,14.23629930,.00100479,98.6769,193.0109,149.1392,211.0379,0,U,27848,999,19376,.1438218E-3,.284E-5,0
CUBESAT XI-V,2005-043F,2026-07-04T04:26:34.447488,14.72679968,.00147858,98.3004,341.1656,147.6619,212.5497,0,U,28895,999,10425,.28127005E-3,.1743E-4,0
CUTE-1.7+APD II (CO-65),2008-021C,2026-07-04T05:14:22.345152,15.09621805,.00079593,97.8289,166.9933,343.0118,17.0843,0,U,32785,999,98776,.43804536E-3,.6983E-4,0
CANX-2,2008-021H,2026-07-03T18:28:07.036896,15.05735745,.00099783,97.8640,164.8709,356.9111,3.2051,0,U,32790,999,98730,.35869051E-3,.5132E-4,0
SEEDS II (CO-66),2008-021J,2026-07-03T10:53:24.291168,15.33316385,.00015908,97.7521,183.1342,184.9877,175.1349,0,U,32791,999,98978,.5788422E-3,.18577E-3,0
SWISSCUBE,2009-051B,2026-07-04T04:54:22.403808,14.62515164,.00072032,98.4022,93.3885,149.3309,210.8314,0,U,35932,999,89164,.24944454E-3,.1216E-4,0
BEESAT-1,2009-051C,2026-07-04T00:25:02.099424,14.61748287,.00053974,98.3948,92.7981,160.6033,199.5374,0,U,35933,999,89164,.21141658E-3,.1005E-4,0
ITUPSAT1,2009-051E,2026-07-04T00:33:09.275328,14.60466234,.00072743,98.4031,91.9778,176.2481,183.8774,0,U,35935,999,89119,.19967095E-3,.919E-5,0
TISAT 1,2010-035E,2026-07-04T02:22:33.009888,15.32370089,.00035949,98.0712,133.1565,140.6346,219.5156,0,U,36799,999,87029,.90078974E-3,.28145E-3,0
AEROCUBE 4.5A,2012-048K,2026-06-29T19:35:03.540480,16.17962819,.00188678,64.6148,340.0554,267.4936,92.4076,0,U,38767,999,37468,.11805476E-2,.2026816E-1,.7424434E-5
STRAND-1,2013-009E,2026-07-04T06:03:39.205440,14.37173910,.00087464,98.3929,5.0673,171.9744,188.1585,0,U,39090,999,69951,.1295826E-3,.343E-5,0
BRITE-AUSTRIA,2013-009F,2026-07-03T10:29:15.560160,14.36548610,.00100186,98.4002,3.4710,184.9136,175.1954,0,U,39091,999,69938,.78354777E-4,.188E-5,0
NEE-01 PEGASO,2013-018B,2026-07-03T08:13:52.867200,14.93742035,.00138596,98.1245,329.0290,109.8215,250.4499,0,U,39151,999,71311,.32924075E-3,.3432E-4,0
POPACS 2,2013-055E,2026-07-04T03:37:29.697888,14.91684187,.04159775,80.9918,124.7719,139.3119,223.9982,0,U,39269,999,66574,.3369444E-3,.20387E-3,-.797942E-6
POPACS 3,2013-055F,2026-07-02T18:49:34.796064,14.56416328,.05504295,80.9990,212.2734,22.5213,339.9158,0,U,39270,999,64082,.24058117E-3,.10186E-3,0
ZACUBE-1 (TSHEPISOSAT),2013-066B,2026-07-03T22:29:51.330624,15.01282961,.00431223,97.8036,147.3589,191.4127,168.6124,0,U,39417,999,68324,.30713201E-3,.3964E-4,0
WNISAT-1,2013-066H,2026-07-03T09:45:46.807200,14.58097865,.01630321,97.7222,332.4134,180.3243,179.7879,0,U,39423,999,66909,.2722315E-3,.1457E-4,0
TRITON-1,2013-066M,2026-07-04T05:53:55.328064,14.81764104,.00896928,97.8233,94.6639,177.6997,182.4647,0,U,39427,999,67661,.30121013E-3,.2491E-4,0
GOMX-1,2013-066Q,2026-07-04T06:38:49.405344,14.69517039,.01292394,97.6468,24.6603,23.2162,337.4811,0,U,39430,999,67242,.25289913E-3,.1654E-4,0
CUBEBUG-2 (LO-74),2013-066AA,2026-07-04T06:40:01.392960,14.93908765,.00564678,97.8916,134.3300,332.5565,27.2675,0,U,39440,999,67954,.54420898E-3,.5912E-4,0
NEE-02 KRYSAOR,2013-066AB,2026-07-04T07:19:04.058112,14.86701659,.00664374,97.8894,124.3983,15.0684,345.2490,0,U,39441,999,67874,.37715168E-3,.3432E-4,0
FUNCUBE-1 (AO-73),2013-066AE,2026-07-04T03:47:42.295488,15.09700275,.00373732,97.8284,156.9608,143.7626,216.6145,0,U,39444,999,68222,.54563342E-3,.8874E-4,0
UWE-3,2013-066AG,2026-07-04T03:00:48.152448,14.97148149,.00472649,97.8706,141.3160,263.1335,96.4508,0,U,39446,999,68011,.33626891E-3,.391E-4,0
BRITE-CA1 (TORONTO),2014-033L,2026-07-04T02:12:10.357056,14.72706062,.00776807,97.9761,313.7101,222.0405,137.4826,0,U,40020,999,64470,.18343689E-3,.1173E-4,0
DUCHIFAT-1,2014-033M,2026-07-03T16:42:34.319520,15.68277261,.00003219,98.0432,246.2208,267.7040,92.4182,0,U,40021,999,65833,.12811874E-2,.145426E-2,0
NANOSATC-BR1,2014-033Q,2026-07-03T12:53:54.888576,15.31992881,.00052356,98.0708,218.3796,123.7203,236.4537,0,U,40024,999,65648,.58018799E-3,.17863E-3,0
QB50P1,2014-033R,2026-07-04T06:49:24.104064,15.18529559,.00095928,98.0964,197.6317,157.2426,202.9233,0,U,40025,999,65562,.53185759E-3,.10923E-3,0
QB50P2,2014-033Y,2026-07-04T06:28:11.865792,15.15390719,.0009202,98.0759,183.2158,114.0833,246.1362,0,U,40032,999,65525,.55007797E-3,.10328E-3,0
PERSEUS-M2,2014-033AD,2026-07-04T07:48:09.478080,14.95558986,.00105859,97.9970,136.2162,240.6902,119.3261,0,U,40037,999,65334,.13839538E-3,.1475E-4,0
