CUTE-1 (CO-55)          
1 27844U 03031E   26185.24788263  .00000339  00000+0  16569-3 0  9998
2 27844  98.6737 193.5921 0010495 131.0511 229.1577 14.24346436194103
CUBESAT XI-IV (CO-57)   
1 27848U 03031J   26184.96377740  .00000284  00000+0  14382-3 0  9994
2 27848  98.6769 193.0109 0010047 149.1392 211.0379 14.23629930193768
CUBESAT XI-V            
1 28895U 05043F   26185.18512092  .00001743  00000+0  28127-3 0  9991
2 28895  98.3004 341.1656 0014785 147.6619 212.5497 14.72679968104254
CUTE-1.7+APD II (CO-65) 
1 32785U 08021C   26185.21831418  .00006983  00000+0  43805-3 0  9994
2 32785  97.8289 166.9933 0007959 343.0118  17.0843 15.09621805987764
CANX-2                  
1 32790U 08021H   26184.76952589  .00005132  00000+0  35869-3 0  9998
2 32790  97.8640 164.8709 0009978 356.9111   3.2051 15.05735745987301
SEEDS II (CO-66)        
1 32791U 08021J   26184.45375337  .00018577  00000+0  57884-3 0  9993
2 32791  97.7521 183.1342 0001590 184.9877 175.1349 15.33316385989785
SWISSCUBE               
1 35932U 09051B   26185.20442597  .00001216  00000+0  24944-3 0  9997
2 35932  98.4022  93.3885 0007203 149.3309 210.8314 14.62515164891648
BEESAT-1                
1 35933U 09051C   26185.01738541  .00001005  00000+0  21142-3 0  9997
2 35933  98.3948  92.7981 0005397 160.6033 199.5374 14.61748287891649
ITUPSAT1                
1 35935U 09051E   26185.02302402  .00000919  00000+0  19967-3 0  9998
2 35935  98.4031  91.9778 0007274 176.2481 183.8774 14.60466234891194
TISAT 1                 
1 36799U 10035E   26185.09899317  .00028145  00000+0  90079-3 0  9998
2 36799  98.0712 133.1565 0003594 140.6346 219.5156 15.32370089870295
AEROCUBE 4.5A           
1 38767U 12048K   26180.81601320  .02026816  74244-5  11805-2 0  9992
2 38767  64.6148 340.0554 0018867 267.4936  92.4076 16.17962819374686
STRAND-1                
1 39090U 13009E   26185.25253710  .00000343  00000+0  12958-3 0  9998
2 39090  98.3929   5.0673 0008746 171.9744 188.1585 14.37173910699514
BRITE-AUSTRIA           
1 39091U 13009F   26184.43698565  .00000188  00000+0  78355-4 0  9990
2 39091  98.4002   3.4710 0010018 184.9136 175.1954 14.36548610699389
NEE-01 PEGASO           
1 39151U 13018B   26184.34297300  .00003432  00000+0  32924-3 0  9995
2 39151  98.1245 329.0290 0013859 109.8215 250.4499 14.93742035713111
POPACS 2                
1 39269U 13055E   26185.15103817  .00020387 -79794-6  33694-3 0  9992
2 39269  80.9918 124.7719 0415977 139.3119 223.9982 14.91684187665749
POPACS 3                
1 39270U 13055F   26183.78443051  .00010186  00000+0  24058-3 0  9994
2 39270  80.9990 212.2734 0550429  22.5213 339.9158 14.56416328640827
ZACUBE-1 (TSHEPISOSAT)  
1 39417U 13066B   26184.93739966  .00003964  00000+0  30713-3 0  9991
2 39417  97.8036 147.3589 0043122 191.4127 168.6124 15.01282961683249
WNISAT-1                
1 39423U 13066H   26184.40679175  .00001457  00000+0  27223-3 0  9992
2 39423  97.7222 332.4134 0163032 180.3243 179.7879 14.58097865669099
TRITON-1                
1 39427U 13066M   26185.24577926  .00002491  00000+0  30121-3 0  9990
2 39427  97.8233  94.6639 0089692 177.6997 182.4647 14.81764104676610
GOMX-1                  
1 39430U 13066Q   26185.27696071  .00001654  00000+0  25290-3 0  9991
2 39430  97.6468  24.6603 0129239  23.2162 337.4811 14.69517039672427
CUBEBUG-2 (LO-74)       
1 39440U 13066AA  26185.27779390  .00005912  00000+0  54421-3 0  9997
2 39440  97.8916 134.3300 0056467 332.5565  27.2675 14.93908765679545
NEE-02 KRYSAOR          
1 39441U 13066AB  26185.30490808  .00003432  00000+0  37715-3 0  9998
2 39441  97.8894 124.3983 0066437  15.0684 345.2490 14.86701659678744
FUNCUBE-1 (AO-73)       
1 39444U 13066AE  26185.15812842  .00008874  00000+0  54563-3 0  9995
2 39444  97.8284 156.9608 0037373 143.7626 216.6145 15.09700275682222
UWE-3                   
1 39446U 13066AG  26185.12555732  .00003910  00000+0  33627-3 0  9990
2 39446  97.8706 141.3160 0047264 263.1335  96.4508 14.97148149680113
BRITE-CA1 (TORONTO)     
1 40020U 14033L   26185.09178654  .00001173  00000+0  18344-3 0  9993
2 40020  97.9761 313.7101 0077680 222.0405 137.4826 14.72706062644703
DUCHIFAT-1              
1 40021U 14033M   26184.69623055  .00145426  00000+0  12812-2 0  9992
2 40021  98.0432 246.2208 0000321 267.7040  92.4182 15.68277261658337
NANOSATC-BR1            
1 40024U 14033Q   26184.53744084  .00017863  00000+0  58019-3 0  9997
2 40024  98.0708 218.3796 0005235 123.7203 236.4537 15.31992881656489
QB50P1                  
1 40025U 14033R   26185.28430676  .00010923  00000+0  53186-3 0  9990
2 40025  98.0964 197.6317 0009592 157.2426 202.9233 15.18529559655620
QB50P2                  
1 40032U 14033Y   26185.26958178  .00010328  00000+0  55008-3 0  9992
2 40032  98.0759 183.2158 0009202 114.0833 246.1362 15.15390719655258
PERSEUS-M2              
1 40037U 14033AD  26185.32510970  .00001475  00000+0  13840-3 0  9999
2 40037  97.9970 136.2162 0010585 240.6902 119.3261 14.95558986653344
